{
  "type": "FeatureCollection",
  "features": [
    {
      "type": "Feature",
      "properties": {
        "norad_id": 30073,
        "name": "FENGYUN 1C DEB",
        "group": "fengyun-1c-debris",
        "lat": -75.52534545388353,
        "lon": -3.7766960920682298,
        "alt_km": 798.9400672513093,
        "timestamp": "2025-12-09T07:41:33.481859+00:00",
        "meta_object_name": "FENGYUN 1C DEB",
        "meta_object_id": "1999-025QA",
        "meta_epoch": "2025-12-08T22:11:13.403616",
        "meta_mean_motion": 14.1862723,
        "meta_eccentricity": 0.00538808,
        "meta_inclination": 99.4118,
        "meta_ra_of_asc_node": 315.8227,
        "meta_arg_of_pericenter": 291.619,
        "meta_mean_anomaly": 127.9294,
        "meta_ephemeris_type": 0,
        "meta_classification_type": "U",
        "meta_norad_cat_id": 30073,
        "meta_element_set_no": 999,
        "meta_rev_at_epoch": 96871,
        "meta_bstar": 0.0021465715,
        "meta_mean_motion_dot": 4.465e-05,
        "meta_mean_motion_ddot": 0,
        "tle_line1": "1 30073U 99025QA  25342.92446069  .00004465  00000+0  21466-2 0  9993",
        "tle_line2": "2 30073  99.4118 315.8227 0053880 291.6190 127.9294 14.18627230968716"
      },
      "geometry": {
        "type": "Point",
        "coordinates": [
          -3.7766960920682298,
          -75.52534545388353
        ]
      }
    },
    {
      "type": "Feature",
      "properties": {
        "norad_id": 30074,
        "name": "FENGYUN 1C DEB",
        "group": "fengyun-1c-debris",
        "lat": 70.97600031595015,
        "lon": -102.71358641024517,
        "alt_km": 801.4294960065718,
        "timestamp": "2025-12-09T07:41:33.481870+00:00",
        "meta_object_name": "FENGYUN 1C DEB",
        "meta_object_id": "1999-025QB",
        "meta_epoch": "2025-12-08T10:47:25.954080",
        "meta_mean_motion": 14.12820855,
        "meta_eccentricity": 0.00975361,
        "meta_inclination": 99.1285,
        "meta_ra_of_asc_node": 48.6031,
        "meta_arg_of_pericenter": 163.6931,
        "meta_mean_anomaly": 196.7417,
        "meta_ephemeris_type": 0,
        "meta_classification_type": "U",
        "meta_norad_cat_id": 30074,
        "meta_element_set_no": 999,
        "meta_rev_at_epoch": 96601,
        "meta_bstar": 0.0022471446,
        "meta_mean_motion_dot": 4.326e-05,
        "meta_mean_motion_ddot": 0,
        "tle_line1": "1 30074U 99025QB  25342.44960595  .00004326  00000+0  22471-2 0  9999",
        "tle_line2": "2 30074  99.1285  48.6031 0097536 163.6931 196.7417 14.12820855966014"
      },
      "geometry": {
        "type": "Point",
        "coordinates": [
          -102.71358641024517,
          70.97600031595015
        ]
      }
    },
    {
      "type": "Feature",
      "properties": {
        "norad_id": 30075,
        "name": "FENGYUN 1C DEB",
        "group": "fengyun-1c-debris",
        "lat": 80.60250853024941,
        "lon": -60.974021731918064,
        "alt_km": 918.1030407376202,
        "timestamp": "2025-12-09T07:41:33.481881+00:00",
        "meta_object_name": "FENGYUN 1C DEB",
        "meta_object_id": "1999-025QC",
        "meta_epoch": "2025-12-08T09:08:21.156288",
        "meta_mean_motion": 13.92531298,
        "meta_eccentricity": 0.00909029,
        "meta_inclination": 99.3624,
        "meta_ra_of_asc_node": 32.6494,
        "meta_arg_of_pericenter": 188.8032,
        "meta_mean_anomaly": 234.5603,
        "meta_ephemeris_type": 0,
        "meta_classification_type": "U",
        "meta_norad_cat_id": 30075,
        "meta_element_set_no": 999,
        "meta_rev_at_epoch": 96004,
        "meta_bstar": 0.00031437086,
        "meta_mean_motion_dot": 3.73e-06,
        "meta_mean_motion_ddot": 0,
        "tle_line1": "1 30075U 99025QC  25342.38080042  .00000373  00000+0  31437-3 0  9994",
        "tle_line2": "2 30075  99.3624  32.6494 0090902 188.8032 234.5603 13.92531298960043"
      },
      "geometry": {
        "type": "Point",
        "coordinates": [
          -60.974021731918064,
          80.60250853024941
        ]
      }
    },
    {
      "type": "Feature",
      "properties": {
        "norad_id": 30076,
        "name": "FENGYUN 1C DEB",
        "group": "fengyun-1c-debris",
        "lat": -14.37040779162244,
        "lon": -27.46303739295207,
        "alt_km": 1039.0691412820224,
        "timestamp": "2025-12-09T07:41:33.481895+00:00",
        "meta_object_name": "FENGYUN 1C DEB",
        "meta_object_id": "1999-025QD",
        "meta_epoch": "2025-12-08T23:22:56.271360",
        "meta_mean_motion": 13.76287077,
        "meta_eccentricity": 0.01756404,
        "meta_inclination": 99.2377,
        "meta_ra_of_asc_node": 329.8113,
        "meta_arg_of_pericenter": 103.7705,
        "meta_mean_anomaly": 328.8803,
        "meta_ephemeris_type": 0,
        "meta_classification_type": "U",
        "meta_norad_cat_id": 30076,
        "meta_element_set_no": 999,
        "meta_rev_at_epoch": 94842,
        "meta_bstar": 0.00037711117,
        "meta_mean_motion_dot": 3.7e-06,
        "meta_mean_motion_ddot": 0,
        "tle_line1": "1 30076U 99025QD  25342.97426240  .00000370  00000+0  37711-3 0  9992",
        "tle_line2": "2 30076  99.2377 329.8113 0175640 103.7705 328.8803 13.76287077948425"
      },
      "geometry": {
        "type": "Point",
        "coordinates": [
          -27.46303739295207,
          -14.37040779162244
        ]
      }
    },
    {
      "type": "Feature",
      "properties": {
        "norad_id": 30077,
        "name": "FENGYUN 1C DEB",
        "group": "fengyun-1c-debris",
        "lat": -70.73136539704235,
        "lon": 152.91718441414307,
        "alt_km": 862.8827041132299,
        "timestamp": "2025-12-09T07:41:33.481907+00:00",
        "meta_object_name": "FENGYUN 1C DEB",
        "meta_object_id": "1999-025QE",
        "meta_epoch": "2025-12-08T23:57:04.271040",
        "meta_mean_motion": 14.07078,
        "meta_eccentricity": 0.00204154,
        "meta_inclination": 98.7582,
        "meta_ra_of_asc_node": 358.7712,
        "meta_arg_of_pericenter": 275.2563,
        "meta_mean_anomaly": 144.5486,
        "meta_ephemeris_type": 0,
        "meta_classification_type": "U",
        "meta_norad_cat_id": 30077,
        "meta_element_set_no": 999,
        "meta_rev_at_epoch": 97060,
        "meta_bstar": 0.00012818045,
        "meta_mean_motion_dot": 1.72e-06,
        "meta_mean_motion_ddot": 0,
        "tle_line1": "1 30077U 99025QE  25342.99796610  .00000172  00000+0  12818-3 0  9997",
        "tle_line2": "2 30077  98.7582 358.7712 0020415 275.2563 144.5486 14.07078000970604"
      },
      "geometry": {
        "type": "Point",
        "coordinates": [
          152.91718441414307,
          -70.73136539704235
        ]
      }
    },
    {
      "type": "Feature",
      "properties": {
        "norad_id": 30078,
        "name": "FENGYUN 1C DEB",
        "group": "fengyun-1c-debris",
        "lat": -53.82698086120605,
        "lon": 70.4542155817523,
        "alt_km": 785.2361646836644,
        "timestamp": "2025-12-09T07:41:33.481918+00:00",
        "meta_object_name": "FENGYUN 1C DEB",
        "meta_object_id": "1999-025QF",
        "meta_epoch": "2025-12-08T19:02:36.355776",
        "meta_mean_motion": 14.23101807,
        "meta_eccentricity": 0.00525997,
        "meta_inclination": 98.832,
        "meta_ra_of_asc_node": 57.6482,
        "meta_arg_of_pericenter": 291.982,
        "meta_mean_anomaly": 194.5089,
        "meta_ephemeris_type": 0,
        "meta_classification_type": "U",
        "meta_norad_cat_id": 30078,
        "meta_element_set_no": 999,
        "meta_rev_at_epoch": 97057,
        "meta_bstar": 0.0021929341,
        "meta_mean_motion_dot": 4.977e-05,
        "meta_mean_motion_ddot": 0,
        "tle_line1": "1 30078U 99025QF  25342.79347634  .00004977  00000+0  21929-2 0  9993",
        "tle_line2": "2 30078  98.8320  57.6482 0052599 291.9820 194.5089 14.23101807970574"
      },
      "geometry": {
        "type": "Point",
        "coordinates": [
          70.4542155817523,
          -53.82698086120605
        ]
      }
    },
    {
      "type": "Feature",
      "properties": {
        "norad_id": 30079,
        "name": "FENGYUN 1C DEB",
        "group": "fengyun-1c-debris",
        "lat": -43.325982084738826,
        "lon": 47.527668759106255,
        "alt_km": 836.6193704490906,
        "timestamp": "2025-12-09T07:41:33.481929+00:00",
        "meta_object_name": "FENGYUN 1C DEB",
        "meta_object_id": "1999-025QG",
        "meta_epoch": "2025-12-08T17:02:28.866048",
        "meta_mean_motion": 14.0079109,
        "meta_eccentricity": 0.00846264,
        "meta_inclination": 99.0361,
        "meta_ra_of_asc_node": 38.2917,
        "meta_arg_of_pericenter": 310.3687,
        "meta_mean_anomaly": 168.7659,
        "meta_ephemeris_type": 0,
        "meta_classification_type": "U",
        "meta_norad_cat_id": 30079,
        "meta_element_set_no": 999,
        "meta_rev_at_epoch": 96481,
        "meta_bstar": 0.00037305961,
        "meta_mean_motion_dot": 5.29e-06,
        "meta_mean_motion_ddot": 0,
        "tle_line1": "1 30079U 99025QG  25342.71005632  .00000529  00000+0  37306-3 0  9991",
        "tle_line2": "2 30079  99.0361  38.2917 0084626 310.3687 168.7659 14.00791090964814"
      },
      "geometry": {
        "type": "Point",
        "coordinates": [
          47.527668759106255,
          -43.325982084738826
        ]
      }
    }
  ]
}